start=new Date('2022-06-30T00:00:00.000Z').valueOf();
sats=[{"INCLINATION":"53.0557","RCS_SIZE":"LARGE","APOAPSIS":"548.402","MEAN_ELEMENT_THEORY":"SGP4","COUNTRY_CODE":"US","TIME_SYSTEM":"UTC","RA_OF_ASC_NODE":"46.7003","LAUNCH_DATE":"2021-05-26","OBJECT_TYPE":"PAYLOAD","EPOCH":"2022-06-29T20:58:08.671008","EPHEMERIS_TYPE":"0","ELEMENT_SET_NO":"999","REV_AT_EPOCH":"6055","ARG_OF_PERICENTER":"71.0975","SEMIMAJOR_AXIS":"6925.378","GP_ID":"207118411","FILE":"3505610","CENTER_NAME":"EARTH","NORAD_CAT_ID":"48667","MEAN_MOTION_DDOT":"0.0000000000000","PERIOD":"95.593","ECCENTRICITY":"0.00016730","REF_FRAME":"TEME","CLASSIFICATION_TYPE":"U","BSTAR":"0.00003579100000","MEAN_MOTION_DOT":"0.00000251","OBJECT_NAME":"STARLINK-2735","DECAY_DATE":null,"PERIAPSIS":"546.085","MEAN_ANOMALY":"289.0195","OBJECT_ID":"2021-044AF","TLE_LINE1":"1 48667U 21044AF  22180.87371147  .00000251  00000-0  35791-4 0  9990","TLE_LINE2":"2 48667  53.0557  46.7003 0001673  71.0975 289.0195 15.06390326 60559","SITE":"AFETR","MEAN_MOTION":"15.06390326"},{"EPOCH":"2022-06-29T20:52:50.304288","ELEMENT_SET_NO":"999","EPHEMERIS_TYPE":"0","COUNTRY_CODE":"US","OBJECT_TYPE":"PAYLOAD","LAUNCH_DATE":"2021-05-26","RA_OF_ASC_NODE":"46.7100","TIME_SYSTEM":"UTC","MEAN_ELEMENT_THEORY":"SGP4","RCS_SIZE":"LARGE","INCLINATION":"53.0559","APOAPSIS":"548.344","GP_ID":"207119161","SEMIMAJOR_AXIS":"6925.381","ARG_OF_PERICENTER":"77.5592","REV_AT_EPOCH":"6055","OBJECT_NAME":"STARLINK-2738","MEAN_MOTION_DOT":"0.00000237","CLASSIFICATION_TYPE":"U","BSTAR":"0.00003483500000","REF_FRAME":"TEME","PERIOD":"95.593","MEAN_MOTION_DDOT":"0.0000000000000","ECCENTRICITY":"0.00015860","NORAD_CAT_ID":"48668","FILE":"3505610","CENTER_NAME":"EARTH","SITE":"AFETR","MEAN_MOTION":"15.06389477","TLE_LINE1":"1 48668U 21044AG  22180.87002667  .00000237  00000-0  34835-4 0  9991","TLE_LINE2":"2 48668  53.0559  46.7100 0001586  77.5592 282.5575 15.06389477 60554","PERIAPSIS":"546.147","DECAY_DATE":null,"MEAN_ANOMALY":"282.5575","OBJECT_ID":"2021-044AG"},{"OBJECT_NAME":"STARLINK-2707","MEAN_MOTION_DOT":"0.00002154","REF_FRAME":"TEME","BSTAR":"0.00016347000000","CLASSIFICATION_TYPE":"U","ECCENTRICITY":"0.00015730","MEAN_MOTION_DDOT":"0.0000000000000","PERIOD":"95.592","FILE":"3505610","CENTER_NAME":"EARTH","NORAD_CAT_ID":"48669","SITE":"AFETR","MEAN_MOTION":"15.06394923","TLE_LINE2":"2 48669  53.0555  46.4113 0001573  78.4433 281.6733 15.06394923 60550","TLE_LINE1":"1 48669U 21044AH  22180.93267705  .00002154  00000-0  16347-3 0  9992","OBJECT_ID":"2021-044AH","MEAN_ANOMALY":"281.6733","DECAY_DATE":null,"PERIAPSIS":"546.140","EPHEMERIS_TYPE":"0","ELEMENT_SET_NO":"999","EPOCH":"2022-06-29T22:23:03.297120","RA_OF_ASC_NODE":"46.4113","TIME_SYSTEM":"UTC","OBJECT_TYPE":"PAYLOAD","LAUNCH_DATE":"2021-05-26","COUNTRY_CODE":"US","MEAN_ELEMENT_THEORY":"SGP4","APOAPSIS":"548.318","RCS_SIZE":"LARGE","INCLINATION":"53.0555","SEMIMAJOR_AXIS":"6925.364","GP_ID":"207119411","ARG_OF_PERICENTER":"78.4433","REV_AT_EPOCH":"6055"},{"APOAPSIS":"548.311","INCLINATION":"53.0557","RCS_SIZE":"LARGE","MEAN_ELEMENT_THEORY":"SGP4","TIME_SYSTEM":"UTC","RA_OF_ASC_NODE":"46.4277","LAUNCH_DATE":"2021-05-26","OBJECT_TYPE":"PAYLOAD","COUNTRY_CODE":"US","EPHEMERIS_TYPE":"0","ELEMENT_SET_NO":"999","EPOCH":"2022-06-29T22:17:46.208256","REV_AT_EPOCH":"6055","ARG_OF_PERICENTER":"79.7019","SEMIMAJOR_AXIS":"6925.389","GP_ID":"207118662","FILE":"3505610","NORAD_CAT_ID":"48670","CENTER_NAME":"EARTH","ECCENTRICITY":"0.00015260","MEAN_MOTION_DDOT":"0.0000000000000","PERIOD":"95.593","REF_FRAME":"TEME","BSTAR":"-0.00005121800000","CLASSIFICATION_TYPE":"U","OBJECT_NAME":"STARLINK-2763","MEAN_MOTION_DOT":"-0.00001044","OBJECT_ID":"2021-044AJ","MEAN_ANOMALY":"280.4142","DECAY_DATE":null,"PERIAPSIS":"546.197","TLE_LINE2":"2 48670  53.0557  46.4277 0001526  79.7019 280.4142 15.06386880 60551","TLE_LINE1":"1 48670U 21044AJ  22180.92900704 -.00001044  00000-0 -51218-4 0  9992","SITE":"AFETR","MEAN_MOTION":"15.06386880"},{"RCS_SIZE":"LARGE","INCLINATION":"53.0552","APOAPSIS":"548.601","MEAN_ELEMENT_THEORY":"SGP4","COUNTRY_CODE":"US","LAUNCH_DATE":"2021-05-26","OBJECT_TYPE":"PAYLOAD","TIME_SYSTEM":"UTC","RA_OF_ASC_NODE":"46.4644","EPOCH":"2022-06-29T22:12:26.741664","ELEMENT_SET_NO":"999","EPHEMERIS_TYPE":"0","REV_AT_EPOCH":"6055","ARG_OF_PERICENTER":"73.5473","GP_ID":"207118912","SEMIMAJOR_AXIS":"6925.332","CENTER_NAME":"EARTH","FILE":"3505610","NORAD_CAT_ID":"48671","PERIOD":"95.592","MEAN_MOTION_DDOT":"0.0000000000000","ECCENTRICITY":"0.00020280","BSTAR":"-0.00005760800000","CLASSIFICATION_TYPE":"U","REF_FRAME":"TEME","MEAN_MOTION_DOT":"-0.00001140","OBJECT_NAME":"STARLINK-2745","PERIAPSIS":"545.792","DECAY_DATE":null,"MEAN_ANOMALY":"286.5739","OBJECT_ID":"2021-044AK","TLE_LINE1":"1 48671U 21044AK  22180.92530951 -.00001140  00000-0 -57608-4 0  9992","TLE_LINE2":"2 48671  53.0552  46.4644 0002028  73.5473 286.5739 15.06405544 60557","SITE":"AFETR","MEAN_MOTION":"15.06405544"},{"REF_FRAME":"TEME","CLASSIFICATION_TYPE":"U","BSTAR":"0.00005904500000","MEAN_MOTION_DOT":"0.00000598","OBJECT_NAME":"STARLINK-2705","FILE":"3505610","CENTER_NAME":"EARTH","NORAD_CAT_ID":"48672","ECCENTRICITY":"0.00014650","MEAN_MOTION_DDOT":"0.0000000000000","PERIOD":"95.593","MEAN_MOTION":"15.06390159","SITE":"AFETR","OBJECT_ID":"2021-044AL","MEAN_ANOMALY":"284.5353","DECAY_DATE":null,"PERIAPSIS":"546.229","TLE_LINE2":"2 48672  53.0554  46.4898 0001465  75.5798 284.5353 15.06390159 60552","TLE_LINE1":"1 48672U 21044AL  22180.92162944  .00000598  00000-0  59045-4 0  9997","TIME_SYSTEM":"UTC","RA_OF_ASC_NODE":"46.4898","LAUNCH_DATE":"2021-05-26","OBJECT_TYPE":"PAYLOAD","COUNTRY_CODE":"US","EPHEMERIS_TYPE":"0","ELEMENT_SET_NO":"999","EPOCH":"2022-06-29T22:07:08.783616","APOAPSIS":"548.258","RCS_SIZE":"LARGE","INCLINATION":"53.0554","MEAN_ELEMENT_THEORY":"SGP4","ARG_OF_PERICENTER":"75.5798","SEMIMAJOR_AXIS":"6925.379","GP_ID":"207119661","REV_AT_EPOCH":"6055"},{"CENTER_NAME":"EARTH","FILE":"3505610","NORAD_CAT_ID":"48673","PERIOD":"95.593","MEAN_MOTION_DDOT":"0.0000000000000","ECCENTRICITY":"0.00015790","CLASSIFICATION_TYPE":"U","BSTAR":"0.00010260000000","REF_FRAME":"TEME","MEAN_MOTION_DOT":"0.00001246","OBJECT_NAME":"STARLINK-2711","PERIAPSIS":"546.166","DECAY_DATE":null,"OBJECT_ID":"2021-044AM","MEAN_ANOMALY":"291.1968","TLE_LINE1":"1 48673U 21044AM  22180.91794443  .00001246  00000-0  10260-3 0  9998","TLE_LINE2":"2 48673  53.0566  46.4961 0001579  68.9190 291.1968 15.06384899 60555","SITE":"AFETR","MEAN_MOTION":"15.06384899","INCLINATION":"53.0566","RCS_SIZE":"LARGE","APOAPSIS":"548.353","MEAN_ELEMENT_THEORY":"SGP4","COUNTRY_CODE":"US","LAUNCH_DATE":"2021-05-26","OBJECT_TYPE":"PAYLOAD","RA_OF_ASC_NODE":"46.4961","TIME_SYSTEM":"UTC","EPOCH":"2022-06-29T22:01:50.398752","ELEMENT_SET_NO":"999","EPHEMERIS_TYPE":"0","REV_AT_EPOCH":"6055","ARG_OF_PERICENTER":"68.9190","SEMIMAJOR_AXIS":"6925.395","GP_ID":"207119912"},{"MEAN_MOTION_DOT":"0.00002252","OBJECT_NAME":"STARLINK-2712","REF_FRAME":"TEME","BSTAR":"0.00017007000000","CLASSIFICATION_TYPE":"U","MEAN_MOTION_DDOT":"0.0000000000000","PERIOD":"95.593","ECCENTRICITY":"0.00015020","FILE":"3505610","CENTER_NAME":"EARTH","NORAD_CAT_ID":"48674","SITE":"AFETR","MEAN_MOTION":"15.06393018","TLE_LINE1":"1 48674U 21044AN  22180.91330675  .00002252  00000-0  17007-3 0  9996","TLE_LINE2":"2 48674  53.0570  46.5092 0001502  75.7639 284.3517 15.06393018 60554","DECAY_DATE":null,"PERIAPSIS":"546.195","OBJECT_ID":"2021-044AN","MEAN_ANOMALY":"284.3517","EPOCH":"2022-06-29T21:55:09.703200","EPHEMERIS_TYPE":"0","ELEMENT_SET_NO":"999","COUNTRY_CODE":"US","TIME_SYSTEM":"UTC","RA_OF_ASC_NODE":"46.5092","OBJECT_TYPE":"PAYLOAD","LAUNCH_DATE":"2021-05-26","MEAN_ELEMENT_THEORY":"SGP4","RCS_SIZE":"LARGE","INCLINATION":"53.0570","APOAPSIS":"548.275","GP_ID":"207118162","SEMIMAJOR_AXIS":"6925.370","ARG_OF_PERICENTER":"75.7639","REV_AT_EPOCH":"6055"},{"EPOCH":"2022-06-29T21:51:12.879936","ELEMENT_SET_NO":"999","EPHEMERIS_TYPE":"0","COUNTRY_CODE":"US","OBJECT_TYPE":"PAYLOAD","LAUNCH_DATE":"2021-05-26","RA_OF_ASC_NODE":"46.5327","TIME_SYSTEM":"UTC","MEAN_ELEMENT_THEORY":"SGP4","RCS_SIZE":"LARGE","INCLINATION":"53.0563","APOAPSIS":"548.171","GP_ID":"207118412","SEMIMAJOR_AXIS":"6925.361","ARG_OF_PERICENTER":"75.7964","REV_AT_EPOCH":"6055","OBJECT_NAME":"STARLINK-2737","MEAN_MOTION_DOT":"0.00000595","CLASSIFICATION_TYPE":"U","BSTAR":"0.00005882500000","REF_FRAME":"TEME","PERIOD":"95.592","MEAN_MOTION_DDOT":"0.0000000000000","ECCENTRICITY":"0.00013640","CENTER_NAME":"EARTH","FILE":"3505610","NORAD_CAT_ID":"48675","SITE":"AFETR","MEAN_MOTION":"15.06395864","TLE_LINE1":"1 48675U 21044AP  22180.91056574  .00000595  00000-0  58825-4 0  9992","TLE_LINE2":"2 48675  53.0563  46.5327 0001364  75.7964 284.3177 15.06395864 60558","PERIAPSIS":"546.282","DECAY_DATE":null,"OBJECT_ID":"2021-044AP","MEAN_ANOMALY":"284.3177"},{"CLASSIFICATION_TYPE":"U","BSTAR":"0.00004129500000","REF_FRAME":"TEME","OBJECT_NAME":"STARLINK-2746","MEAN_MOTION_DOT":"0.00000334","NORAD_CAT_ID":"48676","FILE":"3505610","CENTER_NAME":"EARTH","ECCENTRICITY":"0.00014410","PERIOD":"95.593","MEAN_MOTION_DDOT":"0.0000000000000","MEAN_MOTION":"15.06389943","SITE":"AFETR","MEAN_ANOMALY":"294.8403","OBJECT_ID":"2021-044AQ","PERIAPSIS":"546.246","DECAY_DATE":null,"TLE_LINE2":"2 48676  53.0554  46.5443 0001441  65.2736 294.8403 15.06389943 60554","TLE_LINE1":"1 48676U 21044AQ  22180.90688613  .00000334  00000-0  41295-4 0  9991","LAUNCH_DATE":"2021-05-26","OBJECT_TYPE":"PAYLOAD","TIME_SYSTEM":"UTC","RA_OF_ASC_NODE":"46.5443","COUNTRY_CODE":"US","ELEMENT_SET_NO":"999","EPHEMERIS_TYPE":"0","EPOCH":"2022-06-29T21:45:54.961632","APOAPSIS":"548.242","INCLINATION":"53.0554","RCS_SIZE":"LARGE","MEAN_ELEMENT_THEORY":"SGP4","ARG_OF_PERICENTER":"65.2736","SEMIMAJOR_AXIS":"6925.379","GP_ID":"207119162","REV_AT_EPOCH":"6055"}];
